GLOBALSTAR M094 [+]     
1 39074U 13005C   23317.80769054 -.00000081  00000+0  12475-3 0  9998
2 39074  51.9935 152.2469 0001231  89.2834 270.8173 12.62269901498958
GLOBALSTAR M096 [+]     
1 39075U 13005D   23317.82091571 -.00000061  00000+0  23936-3 0  9995
2 39075  52.0063 200.2678 0001291  72.4710 287.6297 12.62266214497879
GLOBALSTAR M078 [+]     
1 39076U 13005E   23317.95272266 -.00000103  00000+0  67590-5 0  9995
2 39076  51.9877 285.1649 0001111   0.6157 359.4710 12.62263048496510
GLOBALSTAR M095 [+]     
1 39077U 13005F   23317.58332943 -.00000102  00000+0  90452-5 0  9996
2 39077  51.9802 283.7764 0001104  29.5657 330.5272 12.62270594496324
GLOBALSTAR M087 [+]     
1 52888U 22064A   23317.48597913 -.00000080  00000+0  91915-4 0  9994
2 52888  51.9758 243.9979 0009280 170.2512 189.8570 13.37557810 68527
